STARLINK-31950          
1 59863U 24098F   26067.56848266 -.00038303  00000+0 -13814-2 0  9997
2 59863  43.0002 284.4192 0001840  57.7343 302.3687 15.27770245101678
FLOCK 4G-2              
1 62661U 25009BE  26068.66207492  .00013752  00000+0  51068-3 0  9995
2 62661  97.4044 151.2221 0003181 329.2677  30.8376 15.27675260121321
